NORAD_CAT_ID,OBJECT_NAME,OBJECT_TYPE,EPOCH,MEAN_MOTION,ECCENTRICITY,INCLINATION,RA_OF_ASC_NODE,ARG_OF_PERICENTER,MEAN_ANOMALY,BSTAR,MEAN_MOTION_DOT,MEAN_MOTION_DDOT,TLE_LINE0,TLE_LINE1,TLE_LINE2,SEMIMAJOR_AXIS,PERIOD,APOGEE,PERIGEE,DECAYED
53545.0,STARLINK-4475,PAYLOAD,2023-02-07 10:04:09,15.08847928,0.0001646,53.219,80.1442,107.666,252.4512,0.0001698,2.416e-05,0.0,0 STARLINK-4475,1 53545U 22101U   23038.41955997  .00002416  00000-0  16980-3 0  9993,2 53545  53.2190  80.1442 0001646 107.6660 252.4512 15.08847928 26276,6917.856,95.437,540.86,538.582,0.0
53545.0,STARLINK-4475,PAYLOAD,2023-02-08 11:30:20,15.08843866,0.000144,53.2185,75.3833,86.9193,273.1964,3.1754e-05,2.17e-06,0.0,0 STARLINK-4475,1 53545U 22101U   23039.47940581  .00000217  00000-0  31754-4 0  9997,2 53545  53.2185  75.3833 0001440  86.9193 273.1964 15.08843866 26438,6917.869,95.437,540.73,538.737,0.0
53545.0,STARLINK-4475,PAYLOAD,2023-02-09 09:45:44,15.08843122,0.0001423,53.2187,71.2235,81.4345,278.6809,-1.5369e-06,-3.12e-06,0.0,0 STARLINK-4475,1 53545U 22101U   23040.40676968 -.00000312  00000-0 -15369-5 0  9990,2 53545  53.2187  71.2235 0001423  81.4345 278.6809 15.08843122 27266,6917.871,95.437,540.72,538.751,0.0
53545.0,STARLINK-4475,PAYLOAD,2023-02-10 01:39:36,15.08835095,0.0001186,53.2186,68.2454,100.2536,259.859,3.9494e-06,-2.25e-06,0.0,0 STARLINK-4475,1 53545U 22101U   23041.06917589 -.00000225  00000-0  39494-5 0  9997,2 53545  53.2186  68.2454 0001186 100.2536 259.8590 15.08835095 26674,6917.895,95.438,540.581,538.94,0.0
53545.0,STARLINK-4475,PAYLOAD,2023-02-10 03:14:59,15.08838034,0.0001161,53.2174,67.9524,78.7225,281.3898,2.5844e-05,1.23e-06,0.0,0 STARLINK-4475,1 53545U 22101U   23041.13541359  .00000123  00000-0  25844-4 0  9992,2 53545  53.2174  67.9524 0001161  78.7225 281.3898 15.08838034 27377,6917.886,95.438,540.555,538.948,0.0
53545.0,STARLINK-4475,PAYLOAD,2023-02-10 08:01:08,15.08846849,0.0001206,53.2173,67.0592,83.7993,276.3136,0.00010149,1.328e-05,0.0,0 STARLINK-4475,1 53545U 22101U   23041.33412664  .00001328  00000-0  10149-3 0  9999,2 53545  53.2173  67.0592 0001206  83.7993 276.3136 15.08846849 26719,6917.859,95.437,540.559,538.89,0.0
53545.0,STARLINK-4475,PAYLOAD,2023-02-10 19:08:50,15.08847707,0.0001235,53.2173,64.9777,82.0173,278.096,8.0871e-05,1e-05,0.0,0 STARLINK-4475,1 53545U 22101U   23041.79780628  .00001000  00000-0  80871-4 0  9994,2 53545  53.2173  64.9777 0001235  82.0173 278.0960 15.08847707 27476,6917.857,95.437,540.576,538.867,0.0
53545.0,STARLINK-4475,PAYLOAD,2023-02-10 23:55:00,15.08837937,0.0001449,53.2164,64.0867,88.5633,271.5525,0.00017239,2.457e-05,0.0,0 STARLINK-4475,1 53545U 22101U   23041.99653641  .00002457  00000-0  17239-3 0  9994,2 53545  53.2164  64.0867 0001449  88.5633 271.5525 15.08837937 26812,6917.887,95.438,540.754,538.749,0.0
53545.0,STARLINK-4475,PAYLOAD,2023-02-11 06:16:33,15.08841465,0.0001362,53.2171,62.8964,88.3127,271.8021,3.7267e-05,3.05e-06,0.0,0 STARLINK-4475,1 53545U 22101U   23042.26149405  .00000305  00000-0  37267-4 0  9997,2 53545  53.2171  62.8964 0001362  88.3127 271.8021 15.08841465 27540,6917.876,95.437,540.683,538.799,0.0
53545.0,STARLINK-4475,PAYLOAD,2023-02-11 07:51:55,15.08846049,0.0001333,53.2177,62.5979,109.0766,251.0371,8.2015e-05,1.018e-05,0.0,0 STARLINK-4475,1 53545U 22101U   23042.32772965  .00001018  00000-0  82015-4 0  9990,2 53545  53.2177  62.5979 0001333 109.0766 251.0371 15.08846049 26862,6917.862,95.437,540.649,538.805,0.0
53545.0,STARLINK-4475,PAYLOAD,2023-02-12 04:31:57,15.08841132,0.0001219,53.2176,58.7325,99.6588,260.4542,3.8104e-05,3.19e-06,0.0,0 STARLINK-4475,1 53545U 22101U   23043.18885657  .00000319  00000-0  38104-4 0  9991,2 53545  53.2176  58.7325 0001219  99.6588 260.4542 15.08841132 26998,6917.877,95.437,540.585,538.899,0.0
53545.0,STARLINK-4475,PAYLOAD,2023-02-12 09:18:06,15.08848464,0.0001112,53.2171,57.84,88.8955,271.2164,9.7717e-05,1.268e-05,0.0,0 STARLINK-4475,1 53545U 22101U   23043.38757068  .00001268  00000-0  97717-4 0  9996,2 53545  53.2171  57.8400 0001112  88.8955 271.2164 15.08848464 27027,6917.855,95.437,540.489,538.95,0.0
53545.0,STARLINK-4475,PAYLOAD,2023-02-13 01:11:58,15.08831315,0.000104,53.2176,54.8678,92.0188,268.0923,6.2497e-05,7.07e-06,0.0,0 STARLINK-4475,1 53545U 22101U   23044.04998489  .00000707  00000-0  62497-4 0  9998,2 53545  53.2176  54.8678 0001040  92.0188 268.0923 15.08831315 27126,6917.907,95.438,540.491,539.052,0.0
53545.0,STARLINK-4475,PAYLOAD,2023-02-13 10:44:16,15.08849541,0.0001266,53.2164,53.0822,104.0225,256.0908,0.0002287,3.355e-05,0.0,0 STARLINK-4475,1 53545U 22101U   23044.44741333  .00003355  00000-0  22870-3 0  9998,2 53545  53.2164  53.0822 0001266 104.0225 256.0908 15.08849541 27187,6917.851,95.437,540.592,538.84,0.0
53545.0,STARLINK-4475,PAYLOAD,2023-02-13 17:05:49,15.08840297,0.0001411,53.2171,51.8914,100.0094,260.1057,9.4803e-05,1.221e-05,0.0,0 STARLINK-4475,1 53545U 22101U   23044.71237673  .00001221  00000-0  94803-4 0  9991,2 53545  53.2171  51.8914 0001411 100.0094 260.1057 15.08840297 27220,6917.879,95.438,540.721,538.768,0.0
53545.0,STARLINK-4475,PAYLOAD,2023-02-14 01:02:45,15.08834634,0.0001427,53.2168,50.4055,99.2413,260.874,1.511e-05,-4.7e-07,0.0,0 STARLINK-4475,1 53545U 22101U   23045.04358169 -.00000047  00000-0  15110-4 0  9992,2 53545  53.2168  50.4055 0001427  99.2413 260.8740 15.08834634 27277,6917.897,95.438,540.749,538.775,0.0
53545.0,STARLINK-4475,PAYLOAD,2023-02-14 08:59:40,15.0884084,0.0001326,53.2173,48.9204,87.3578,272.7566,0.00011005,1.464e-05,0.0,0 STARLINK-4475,1 53545U 22101U   23045.37477982  .00001464  00000-0  11005-3 0  9994,2 53545  53.2173  48.9204 0001326  87.3578 272.7566 15.08840840 28016,6917.878,95.438,540.66,538.826,0.0
53545.0,STARLINK-4475,PAYLOAD,2023-02-15 04:04:18,15.08836773,0.0001062,53.2175,45.351,98.994,261.1172,4.9259e-06,-2.09e-06,0.0,0 STARLINK-4475,1 53545U 22101U   23046.16966227 -.00000209  00000-0  49259-5 0  9998,2 53545  53.2175  45.3510 0001062  98.9940 261.1172 15.08836773 27448,6917.89,95.438,540.49,539.021,0.0
53545.0,STARLINK-4475,PAYLOAD,2023-02-15 07:15:04,15.08842263,0.000118,53.2173,44.7565,88.7845,271.3282,6.5085e-05,7.48e-06,0.0,0 STARLINK-4475,1 53545U 22101U   23046.30214016  .00000748  00000-0  65085-4 0  9997,2 53545  53.2173  44.7565 0001180  88.7845 271.3282 15.08842263 28156,6917.873,95.437,540.555,538.922,0.0
53545.0,STARLINK-4475,PAYLOAD,2023-02-15 16:47:23,15.08852832,0.0001297,53.217,42.972,91.016,269.0981,0.00015328,2.153e-05,0.0,0 STARLINK-4475,1 53545U 22101U   23046.69957389  .00002153  00000-0  15328-3 0  9992,2 53545  53.2170  42.9720 0001297  91.0160 269.0981 15.08852832 27525,6917.841,95.437,540.603,538.809,0.0
53545.0,STARLINK-4475,PAYLOAD,2023-02-16 00:44:19,15.08844771,0.0001407,53.2174,41.4848,85.4921,274.6232,0.00024595,3.629e-05,0.0,0 STARLINK-4475,1 53545U 22101U   23047.03077858  .00003629  00000-0  24595-3 0  9990,2 53545  53.2174  41.4848 0001407  85.4921 274.6232 15.08844771 27578,6917.866,95.437,540.704,538.757,0.0
53545.0,STARLINK-4475,PAYLOAD,2023-02-16 08:41:13,15.08865278,0.0001087,53.2172,39.9975,93.5494,266.5623,0.00039456,6.001e-05,0.0,0 STARLINK-4475,1 53545U 22101U   23047.36196579  .00006001  00000-0  39456-3 0  9997,2 53545  53.2172  39.9975 0001087  93.5494 266.5623 15.08865278 27623,6917.803,95.436,540.42,538.916,0.0
53545.0,STARLINK-4475,PAYLOAD,2023-02-16 16:38:11,15.08833788,0.0002076,53.2186,38.5107,78.2531,281.8694,1.2781e-05,-8.5e-07,0.0,0 STARLINK-4475,1 53545U 22101U   23047.69318448 -.00000085  00000-0  12781-4 0  9994,2 53545  53.2186  38.5107 0002076  78.2531 281.8694 15.08833788 27675,6917.899,95.438,541.201,538.328,0.0
53545.0,STARLINK-4475,PAYLOAD,2023-02-17 06:56:39,15.08833685,0.0001448,53.2179,35.8349,79.3257,280.7898,-0.00013134,-2.377e-05,0.0,0 STARLINK-4475,1 53545U 22101U   23048.28934497 -.00002377  00000-0 -13134-3 0  9997,2 53545  53.2179  35.8349 0001448  79.3257 280.7898 15.08833685 28451,6917.9,95.438,540.766,538.763,0.0
53545.0,STARLINK-4475,PAYLOAD,2023-02-17 21:15:08,15.08831218,0.000141,53.2177,33.1596,76.4901,283.6249,-1.9727e-06,-3.19e-06,0.0,0 STARLINK-4475,1 53545U 22101U   23048.88550945 -.00000319  00000-0 -19727-5 0  9995,2 53545  53.2177  33.1596 0001410  76.4901 283.6249 15.08831218 28549,6917.907,95.438,540.748,538.797,0.0
53545.0,STARLINK-4475,PAYLOAD,2023-02-18 02:01:17,15.08831693,0.0001446,53.218,32.2669,78.6742,281.4412,1.5298e-05,-4.5e-07,0.0,0 STARLINK-4475,1 53545U 22101U   23049.08423077 -.00000045  00000-0  15298-4 0  9996,2 53545  53.2180  32.2669 0001446  78.6742 281.4412 15.08831693 27881,6917.906,95.438,540.771,538.77,0.0
53545.0,STARLINK-4475,PAYLOAD,2023-02-18 08:22:49,15.08842137,0.0001276,53.2175,31.0761,89.8805,270.2333,6.8233e-05,7.98e-06,0.0,0 STARLINK-4475,1 53545U 22101U   23049.34918591  .00000798  00000-0  68233-4 0  9996,2 53545  53.2175  31.0761 0001276  89.8805 270.2333 15.08842137 27928,6917.874,95.437,540.622,538.856,0.0
53545.0,STARLINK-4475,PAYLOAD,2023-02-19 08:13:36,15.08862372,0.0001512,53.2178,26.6163,94.3914,265.7251,0.0006891,0.00010703,0.0,0 STARLINK-4475,1 53545U 22101U   23050.34278372  .00010703  00000-0  68910-3 0  9992,2 53545  53.2178  26.6163 0001512  94.3914 265.7251 15.08862372 28070,6917.812,95.436,540.723,538.631,0.0
53545.0,STARLINK-4475,PAYLOAD,2023-02-20 04:53:37,15.08854181,0.0001143,53.2181,22.7513,95.1601,264.9521,0.00036745,5.567e-05,0.0,0 STARLINK-4475,1 53545U 22101U   23051.20390335  .00005567  00000-0  36745-3 0  9995,2 53545  53.2181  22.7513 0001143  95.1601 264.9521 15.08854181 28207,6917.837,95.437,540.493,538.911,0.0
53545.0,STARLINK-4475,PAYLOAD,2023-02-20 06:29:00,15.08855028,0.0001138,53.2182,22.4542,96.2666,263.8456,0.00059677,9.226e-05,0.0,0 STARLINK-4475,1 53545U 22101U   23051.27014282  .00009226  00000-0  59677-3 0  9991,2 53545  53.2182  22.4542 0001138  96.2666 263.8456 15.08855028 28907,6917.834,95.437,540.487,538.912,0.0
